XRISM                   
1 57800U 23137A   24089.54396488  .00007249  00000+0  56075-3 0  9993
2 57800  31.0023 159.1696 0010169 140.0172 220.1213 15.00112552 30635
